COSMOS 2425 (716)       
1 29670U 06062A   21281.34258324  .00000039  00000-0  00000-0 0  9995
2 29670  64.8181 251.6343 0024307 340.9200  20.3302  2.13115170115088
COSMOS 2433 (720)       
1 32275U 07052A   21281.47369410 -.00000058  00000-0  00000-0 0  9995
2 32275  66.0750  13.0347 0003720 212.6079  57.5925  2.13104330108595
COSMOS 2432 (719)       
1 32276U 07052B   21281.30401606 -.00000058  00000-0  00000-0 0  9992
2 32276  66.0883  13.1370 0007907 323.0357 125.9787  2.13103531108595
COSMOS 2434 (721)       
1 32393U 07065A   21281.51438380  .00000039  00000-0  00000-0 0  9996
2 32393  64.4363 250.0354 0000460 147.4197  42.7114  2.13103102107303
COSMOS 2436 (723)       
1 32395U 07065C   21281.40688734  .00000039  00000-0  00000-0 0  9996
2 32395  64.4456 250.0934 0014727 350.3634 253.3428  2.13102940107233
COSMOS 2456 (730)       
1 36111U 09070A   21281.32024713  .00000070  00000-0  00000-0 0  9991
2 36111  64.2941 129.7103 0002445 341.4272 228.8426  2.13099370 91962
COSMOS 2457 (733)       
1 36112U 09070B   21281.13059208  .00000072  00000-0  00000-0 0  9990
2 36112  64.2757 129.5989 0006111 150.7710  39.2844  2.13101584 91969
COSMOS 2459 (731)       
1 36400U 10007A   21281.27174444 -.00000058  00000-0  00000-0 0  9992
2 36400  65.9700  11.9503 0024677 349.0365 345.5506  2.13108986 90305
COSMOS 2461 (735)       
1 36401U 10007B   21281.27322708 -.00000058  00000-0  00000-0 0  9991
2 36401  65.9650  11.9149 0017999   9.0954 325.0663  2.13103672 90317
COSMOS 2460 (732)       
1 36402U 10007C   21281.26828752 -.00000058  00000-0  00000-0 0  9991
2 36402  65.9522  11.8697 0001904 165.5365 110.7903  2.13106582 90315
COSMOS 2464 (736)       
1 37139U 10041C   21281.28231256  .00000037  00000-0  00000-0 0  9992
2 37139  64.0361 249.2440 0027292   5.4064 226.7645  2.13100752 86378
COSMOS 2471 (701K)      
1 37372U 11009A   21281.53889243 -.00000058  00000-0  00000-0 0  9993
2 37372  65.9457  11.7897 0016745 226.4716  28.4775  2.13062383 82599
COSMOS 2476 (744)       
1 37867U 11064A   21281.34228414  .00000070  00000-0  00000-0 0  9992
2 37867  64.5884 130.9670 0019553 232.7132 257.7565  2.13101922 77313
COSMOS 2477 (745)       
1 37868U 11064B   21281.17731028  .00000072  00000-0  00000-0 0  9996
2 37868  64.5951 131.0351 0017068 233.3634 308.8187  2.13101775 77268
COSMOS 2475 (743)       
1 37869U 11064C   21281.47448015  .00000069  00000-0  00000-0 0  9997
2 37869  64.6018 131.0308 0020632 254.9330 113.0512  2.13102139 77284
COSMOS 2485 (747)       
1 39155U 13019A   21281.38400979  .00000070  00000-0  00000-0 0  9998
2 39155  64.7519 131.3390 0020296 228.2306 338.7241  2.13102058 65785
COSMOS 2492 (754)       
1 39620U 14012A   21281.46459421 -.00000058  00000-0  00000-0 0  9991
2 39620  65.8398  11.5794 0011160 318.9511 344.5036  2.13103288 58731
COSMOS 2500 (755)       
1 40001U 14032A   21281.36977332 -.00000058  00000-0  00000-0 0  9993
2 40001  65.7802  11.4629 0008161 195.5267 254.5303  2.13102476 56952
COSMOS 2501 (702K)      
1 40315U 14075A   21281.34208713  .00000037  00000-0  00000-0 0  9992
2 40315  63.7462 250.0070 0018638 213.8035  21.8525  2.13101400 53356
COSMOS 2514 (751)       
1 41330U 16008A   21281.38972391 -.00000059  00000-0  00000-0 0  9997
2 41330  65.5809  11.2174 0011749 207.9778  80.7347  2.13102847 44111
COSMOS 2516 (753)       
1 41554U 16032A   21281.00987838  .00000036  00000-0  00000-0 0  9997
2 41554  63.9719 250.2240 0015350 222.6914  32.3573  2.13107241 41718
COSMOS 2522 (752)       
1 42939U 17055A   21281.45424122  .00000039  00000-0  00000-0 0  9995
2 42939  64.2046 250.5282 0009932 247.9428 208.8838  2.13102019 31486
COSMOS 2527 (756)       
1 43508U 18053A   21280.78667051  .00000077  00000-0  00000-0 0  9994
2 43508  64.9167 131.3071 0006812 219.3902 117.4238  2.13102594 25756
COSMOS 2529 (757)       
1 43687U 18086A   21281.27613229  .00000038  00000-0  00000-0 0  9998
2 43687  64.4196 250.7839 0012081 266.9084   8.8413  2.13102135 22782
COSMOS 2534 (758)       
1 44299U 19030A   21281.54129882  .00000040  00000-0  00000-0 0  9998
2 44299  64.4902 250.6361 0014594 284.1695 329.7702  2.13101937 18439
COSMOS 2544 (759)       
1 44850U 19088A   21281.46577041  .00000069  00000-0  00000-0 0  9990
2 44850  64.9012 131.1412 0010304 257.7641 283.6880  2.13102299 14209
COSMOS 2545 (760)       
1 45358U 20018A   21281.34814987 -.00000060  00000-0  00000-0 0  9991
2 45358  64.9154  12.0331 0009459 236.5662  64.5204  2.13102764 12159
